{"fetched_at":"2026-03-29T16:36:15Z","count":15609,"tles":[{"name":"STARLINK-32131","line1":"1 60153U 24120U   26087.75439754 -.00006080  00000+0 -19346-3 0  9992","line2":"2 60153  53.1596 231.4704 0000746  47.3516 312.7548 15.30180045 99375","category":"Starlink"}]}