{
  "norad_id": 60153,
  "name": "STARLINK-32131",
  "history": [
    {
      "epoch": "2026-03-28T18:06:19.947456Z",
      "apogee_km": 475.7861907456281,
      "perigee_km": 474.76311345420254,
      "latitude_deg": 3.793542673924762e-05,
      "longitude_deg": 133.71700984873587,
      "height_km": 475.8270643581686,
      "semi_major_axis_km": 6853.411652099915,
      "eccentricity": 7.464e-05,
      "inclination_deg": 53.1596,
      "raan_deg": 231.4704,
      "arg_perigee_deg": 47.3516,
      "mean_anomaly_deg": 312.7548,
      "mean_motion_rev_day": 15.30180045
    }
  ]
}